[{"OBJECT_NAME":"OCO 2","OBJECT_ID":"2014-035A","EPOCH":"2026-04-27T06:29:52.514880","MEAN_MOTION":14.57146806,"ECCENTRICITY":0.00016113,"INCLINATION":98.199,"RA_OF_ASC_NODE":59.3495,"ARG_OF_PERICENTER":79.5414,"MEAN_ANOMALY":280.5966,"EPHEMERIS_TYPE":0,"CLASSIFICATION_TYPE":"U","NORAD_CAT_ID":40059,"ELEMENT_SET_NO":999,"REV_AT_EPOCH":62863,"BSTAR":0.00011710228,"MEAN_MOTION_DOT":4.83e-6,"MEAN_MOTION_DDOT":0},{"OBJECT_NAME":"BRITE-PL2 (HEWELIUSZ)","OBJECT_ID":"2014-049B","EPOCH":"2026-04-27T06:54:07.244640","MEAN_MOTION":14.9440052,"ECCENTRICITY":0.00126948,"INCLINATION":97.9036,"RA_OF_ASC_NODE":228.9197,"ARG_OF_PERICENTER":279.3012,"MEAN_ANOMALY":80.6772,"EPHEMERIS_TYPE":0,"CLASSIFICATION_TYPE":"U","NORAD_CAT_ID":40119,"ELEMENT_SET_NO":999,"REV_AT_EPOCH":63384,"BSTAR":0.00016835209,"MEAN_MOTION_DOT":1.756e-5,"MEAN_MOTION_DDOT":0},{"OBJECT_NAME":"MMS 1","OBJECT_ID":"2015-011A","EPOCH":"2026-04-27T08:00:01.000224","MEAN_MOTION":0.2834567,"ECCENTRICITY":0.83630473,"INCLINATION":71.413,"RA_OF_ASC_NODE":349.4858,"ARG_OF_PERICENTER":166.3268,"MEAN_ANOMALY":150.9163,"EPHEMERIS_TYPE":0,"CLASSIFICATION_TYPE":"U","NORAD_CAT_ID":40482,"ELEMENT_SET_NO":999,"REV_AT_EPOCH":135,"BSTAR":0,"MEAN_MOTION_DOT":-5.26e-6,"MEAN_MOTION_DDOT":0},{"OBJECT_NAME":"MMS 2","OBJECT_ID":"2015-011B","EPOCH":"2026-04-27T08:00:01.000224","MEAN_MOTION":0.28345673,"ECCENTRICITY":0.83638049,"INCLINATION":71.4131,"RA_OF_ASC_NODE":349.488,"ARG_OF_PERICENTER":166.3327,"MEAN_ANOMALY":150.902,"EPHEMERIS_TYPE":0,"CLASSIFICATION_TYPE":"U","NORAD_CAT_ID":40483,"ELEMENT_SET_NO":999,"REV_AT_EPOCH":135,"BSTAR":0,"MEAN_MOTION_DOT":-5.26e-6,"MEAN_MOTION_DDOT":0},{"OBJECT_NAME":"MMS 3","OBJECT_ID":"2015-011C","EPOCH":"2026-04-27T08:00:01.000224","MEAN_MOTION":0.2834607,"ECCENTRICITY":0.83632271,"INCLINATION":71.4166,"RA_OF_ASC_NODE":349.4925,"ARG_OF_PERICENTER":166.326,"MEAN_ANOMALY":150.9105,"EPHEMERIS_TYPE":0,"CLASSIFICATION_TYPE":"U","NORAD_CAT_ID":40484,"ELEMENT_SET_NO":999,"REV_AT_EPOCH":135,"BSTAR":0,"MEAN_MOTION_DOT":-5.26e-6,"MEAN_MOTION_DDOT":0},{"OBJECT_NAME":"MMS 4","OBJECT_ID":"2015-011D","EPOCH":"2026-04-27T08:00:01.000224","MEAN_MOTION":0.28345623,"ECCENTRICITY":0.83625907,"INCLINATION":71.413,"RA_OF_ASC_NODE":349.4881,"ARG_OF_PERICENTER":166.3346,"MEAN_ANOMALY":150.8913,"EPHEMERIS_TYPE":0,"CLASSIFICATION_TYPE":"U","NORAD_CAT_ID":40485,"ELEMENT_SET_NO":999,"REV_AT_EPOCH":135,"BSTAR":0,"MEAN_MOTION_DOT":-5.26e-6,"MEAN_MOTION_DDOT":0},{"OBJECT_NAME":"ASTROSAT","OBJECT_ID":"2015-052A","EPOCH":"2026-04-27T00:42:11.323008","MEAN_MOTION":14.82414783,"ECCENTRICITY":0.00078799,"INCLINATION":5.9955,"RA_OF_ASC_NODE":163.5516,"ARG_OF_PERICENTER":20.4671,"MEAN_ANOMALY":339.5772,"EPHEMERIS_TYPE":0,"CLASSIFICATION_TYPE":"U","NORAD_CAT_ID":40930,"ELEMENT_SET_NO":999,"REV_AT_EPOCH":57222,"BSTAR":0.00012816285,"MEAN_MOTION_DOT":1.722e-5,"MEAN_MOTION_DDOT":0},{"OBJECT_NAME":"DAMPE","OBJECT_ID":"2015-078A","EPOCH":"2026-04-27T05:51:57.842208","MEAN_MOTION":15.30654986,"ECCENTRICITY":0.00102507,"INCLINATION":97.4577,"RA_OF_ASC_NODE":122.4647,"ARG_OF_PERICENTER":256.019,"MEAN_ANOMALY":103.9911,"EPHEMERIS_TYPE":0,"CLASSIFICATION_TYPE":"U","NORAD_CAT_ID":41173,"ELEMENT_SET_NO":999,"REV_AT_EPOCH":57675,"BSTAR":5.8182761e-5,"MEAN_MOTION_DOT":1.648e-5,"MEAN_MOTION_DDOT":0},{"OBJECT_NAME":"PISAT","OBJECT_ID":"2016-059B","EPOCH":"2026-04-27T06:14:39.958080","MEAN_MOTION":14.68889095,"ECCENTRICITY":0.00293229,"INCLINATION":97.8188,"RA_OF_ASC_NODE":119.9048,"ARG_OF_PERICENTER":11.3418,"MEAN_ANOMALY":348.8443,"EPHEMERIS_TYPE":0,"CLASSIFICATION_TYPE":"U","NORAD_CAT_ID":41784,"ELEMENT_SET_NO":999,"REV_AT_EPOCH":51226,"BSTAR":0.00020871498,"MEAN_MOTION_DOT":1.181e-5,"MEAN_MOTION_DDOT":0},{"OBJECT_NAME":"HXMT (HUIYAN)","OBJECT_ID":"2017-034A","EPOCH":"2026-04-27T06:42:13.082112","MEAN_MOTION":15.18003151,"ECCENTRICITY":0.00316181,"INCLINATION":43.0131,"RA_OF_ASC_NODE":106.4053,"ARG_OF_PERICENTER":184.7705,"MEAN_ANOMALY":175.2846,"EPHEMERIS_TYPE":0,"CLASSIFICATION_TYPE":"U","NORAD_CAT_ID":42758,"ELEMENT_SET_NO":999,"REV_AT_EPOCH":48992,"BSTAR":0.00021074357,"MEAN_MOTION_DOT":4.177e-5,"MEAN_MOTION_DDOT":0},{"OBJECT_NAME":"FLYING LAPTOP","OBJECT_ID":"2017-042G","EPOCH":"2026-04-27T07:40:35.331168","MEAN_MOTION":15.00817212,"ECCENTRICITY":0.00180084,"INCLINATION":97.4461,"RA_OF_ASC_NODE":274.8924,"ARG_OF_PERICENTER":298.7085,"MEAN_ANOMALY":61.2329,"EPHEMERIS_TYPE":0,"CLASSIFICATION_TYPE":"U","NORAD_CAT_ID":42831,"ELEMENT_SET_NO":999,"REV_AT_EPOCH":47882,"BSTAR":0.0002145015,"MEAN_MOTION_DOT":2.676e-5,"MEAN_MOTION_DDOT":0},{"OBJECT_NAME":"ZHANGHENG 1-01 (CSES-1)","OBJECT_ID":"2018-015C","EPOCH":"2026-04-27T06:41:24.221184","MEAN_MOTION":15.20677048,"ECCENTRICITY":0.00178867,"INCLINATION":97.6826,"RA_OF_ASC_NODE":281.9369,"ARG_OF_PERICENTER":81.9669,"MEAN_ANOMALY":278.3595,"EPHEMERIS_TYPE":0,"CLASSIFICATION_TYPE":"U","NORAD_CAT_ID":43194,"ELEMENT_SET_NO":999,"REV_AT_EPOCH":45690,"BSTAR":0.00044232453,"MEAN_MOTION_DOT":9.69e-5,"MEAN_MOTION_DDOT":0},{"OBJECT_NAME":"SALSAT","OBJECT_ID":"2020-068K","EPOCH":"2026-04-27T05:51:03.655584","MEAN_MOTION":15.29030388,"ECCENTRICITY":0.00115696,"INCLINATION":97.8862,"RA_OF_ASC_NODE":117.2385,"ARG_OF_PERICENTER":117.313,"MEAN_ANOMALY":242.9288,"EPHEMERIS_TYPE":0,"CLASSIFICATION_TYPE":"U","NORAD_CAT_ID":46495,"ELEMENT_SET_NO":999,"REV_AT_EPOCH":30757,"BSTAR":0.00034615871,"MEAN_MOTION_DOT":9.696e-5,"MEAN_MOTION_DDOT":0},{"OBJECT_NAME":"IXPE","OBJECT_ID":"2021-121A","EPOCH":"2026-04-27T08:00:01.000224","MEAN_MOTION":15.0976606,"ECCENTRICITY":0.0007042,"INCLINATION":0.232,"RA_OF_ASC_NODE":342.0235,"ARG_OF_PERICENTER":26.5667,"MEAN_ANOMALY":277.0854,"EPHEMERIS_TYPE":0,"CLASSIFICATION_TYPE":"U","NORAD_CAT_ID":49954,"ELEMENT_SET_NO":999,"REV_AT_EPOCH":574,"BSTAR":0.00069088306,"MEAN_MOTION_DOT":0.00012428,"MEAN_MOTION_DDOT":0}]
