OCO 2                   
1 40059U 14035A   26117.27074670  .00000483  00000+0  11710-3 0  9998
2 40059  98.1990  59.3495 0001611  79.5414 280.5966 14.57146806628633
BRITE-PL2 (HEWELIUSZ)   
1 40119U 14049B   26117.28758385  .00001756  00000+0  16835-3 0  9990
2 40119  97.9036 228.9197 0012694 279.3012  80.6772 14.94400520633848
MMS 1                   
1 40482U 15011A   26117.33334491 -.00000526  00000+0  00000+0 0  9995
2 40482  71.4130 349.4858 8363047 166.3268 150.9163  0.28345670  1359
MMS 2                   
1 40483U 15011B   26117.33334491 -.00000526  00000+0  00000+0 0  9996
2 40483  71.4131 349.4880 8363804 166.3327 150.9020  0.28345673  1358
MMS 3                   
1 40484U 15011C   26117.33334491 -.00000526  00000+0  00000+0 0  9997
2 40484  71.4166 349.4925 8363227 166.3260 150.9105  0.28346070  1358
MMS 4                   
1 40485U 15011D   26117.33334491 -.00000526  00000+0  00000+0 0  9998
2 40485  71.4130 349.4881 8362590 166.3346 150.8913  0.28345623  1357
ASTROSAT                
1 40930U 15052A   26117.02929772  .00001722  00000+0  12816-3 0  9996
2 40930   5.9955 163.5516 0007879  20.4671 339.5772 14.82414783572225
DAMPE                   
1 41173U 15078A   26117.24441947  .00001648  00000+0  58183-4 0  9996
2 41173  97.4577 122.4647 0010250 256.0190 103.9911 15.30654986576755
PISAT                   
1 41784U 16059B   26117.26018470  .00001181  00000+0  20871-3 0  9991
2 41784  97.8188 119.9048 0029322  11.3418 348.8443 14.68889095512263
HXMT (HUIYAN)           
1 42758U 17034A   26117.27931808  .00004177  00000+0  21074-3 0  9991
2 42758  43.0131 106.4053 0031618 184.7705 175.2846 15.18003151489920
FLYING LAPTOP           
1 42831U 17042G   26117.31985337  .00002676  00000+0  21450-3 0  9993
2 42831  97.4461 274.8924 0018008 298.7085  61.2329 15.00817212478822
ZHANGHENG 1-01 (CSES-1) 
1 43194U 18015C   26117.27875256  .00009690  00000+0  44232-3 0  9996
2 43194  97.6826 281.9369 0017886  81.9669 278.3595 15.20677048456901
SALSAT                  
1 46495U 20068K   26117.24379231  .00009696  00000+0  34616-3 0  9994
2 46495  97.8862 117.2385 0011569 117.3130 242.9288 15.29030388307571
IXPE                    
1 49954U 21121A   26117.33334491  .00012428  00000+0  69088-3 0  9995
2 49954   0.2320 342.0235 0007042  26.5667 277.0854 15.09766060  5743
